OBJECT_NAME,OBJECT_ID,EPOCH,MEAN_MOTION,ECCENTRICITY,INCLINATION,RA_OF_ASC_NODE,ARG_OF_PERICENTER,MEAN_ANOMALY,EPHEMERIS_TYPE,CLASSIFICATION_TYPE,NORAD_CAT_ID,ELEMENT_SET_NO,REV_AT_EPOCH,BSTAR,MEAN_MOTION_DOT,MEAN_MOTION_DDOT
GAOFEN-11 01,2018-063A,2026-06-11T23:04:44.289408,15.55131164,.00037343,97.1301,229.8551,17.3278,342.8104,0,U,43585,999,43953,.14769946E-3,.9854E-4,0
ICESAT-2,2018-070A,2026-06-11T21:59:55.917888,15.28187960,.00057622,92.0065,289.5560,115.2806,244.9041,0,U,43613,999,43165,.18932713E-3,.5202E-4,0
HYSIS,2018-096A,2026-06-11T22:23:53.880864,14.78683592,.0001793,97.9843,229.7223,111.0098,249.1305,0,U,43719,999,40664,.90531271E-4,.612E-5,0
KAZSTSAT,2018-099AB,2026-06-11T15:02:42.996192,14.99850159,.00081549,97.4264,194.8082,84.2213,275.9941,0,U,43783,999,41047,.10421023E-3,.1236E-4,0
SAUDISAT 5A,2018-102A,2026-06-11T22:13:19.159680,15.27992836,.00106706,97.3076,224.6081,145.3106,214.8832,0,U,43831,999,41487,.18903705E-3,.5097E-4,0
SAUDISAT 5B,2018-102C,2026-06-11T22:41:44.046816,15.28252682,.00113177,97.3183,227.6876,147.6965,212.4970,0,U,43833,999,41499,.17253699E-3,.4683E-4,0
GAOFEN-10R,2019-066A,2026-06-11T23:00:27.794592,14.83049314,.00063283,98.0496,116.4998,141.8066,218.3597,0,U,44622,999,36160,.12417219E-3,.956E-5,0
CARTOSAT-3,2019-081A,2026-06-11T22:53:56.115744,15.19243487,.00127105,97.4313,224.9048,165.3730,194.7875,0,U,44804,999,36267,.14249092E-3,.294E-4,0
GAOFEN-12 01,2019-082A,2026-06-11T22:37:57.748800,14.80454189,.00024069,97.8106,169.4609,76.2704,283.8776,0,U,44819,999,35331,.4961526E-4,.329E-5,0
CSG-1,2019-092A,2026-06-11T10:45:03.560832,14.82160067,.0001445,97.8887,346.1336,90.9927,269.1452,0,U,44873,999,35062,.48405E-4,.333E-5,0
NEMO-HD,2020-061F,2026-06-11T22:43:27.126336,15.44488438,.00024624,97.1929,224.9525,86.9614,273.1917,0,U,46277,999,32117,.20648727E-3,.9483E-4,0
SENTINEL-6A,2020-086A,2026-06-11T07:23:19.512672,12.80929900,.000794,66.0388,147.2637,270.2561,89.7545,0,U,46984,999,25957,.12839E-3,-.31E-6,0
CAS500-1,2021-022A,2026-06-11T22:17:23.275104,15.20146843,.0004184,97.3913,58.2886,326.9355,33.1618,0,U,47932,999,28996,.28845331E-3,.6173E-4,0
GAOFEN-12 02,2021-026A,2026-06-11T22:53:04.731072,14.80292137,.00034083,97.9920,161.1555,244.7463,115.3396,0,U,48079,999,28098,.47655644E-4,.31E-5,0
PLEIADES NEO 3,2021-034A,2026-06-11T23:39:17.237088,14.81677185,.00014226,97.8932,237.8271,88.6785,271.4591,0,U,48268,999,27688,.15678252E-3,.1182E-4,0
PLEIADES NEO 4,2021-073E,2026-06-11T22:50:40.405056,14.81676678,.0001363,97.8934,237.7892,85.2363,274.9005,0,U,49070,999,26059,.73687894E-4,.528E-5,0
LANDSAT 9,2021-088A,2026-06-11T18:31:03.684288,14.57106894,.00014445,98.2279,233.0143,87.7777,272.3587,0,U,49260,999,25021,.66367573E-4,.254E-5,0
CSG-2,2022-008A,2026-06-11T22:54:10.041696,14.82155485,.00014775,97.8890,346.6284,85.8122,274.3260,0,U,51444,999,23581,.12765103E-3,.964E-5,0
GAOFEN-12 03,2022-069A,2026-06-11T21:57:26.578944,14.80026690,.00018613,97.8291,50.9179,108.3827,251.7588,0,U,52912,999,21383,.14482843E-3,.1045E-4,0
SWOT,2022-173A,2026-06-11T21:57:35.874720,14.00168939,.00002483,77.6110,42.4275,98.3299,261.7881,0,U,54754,999,17841,.76665298E-4,.111E-5,0
GAOFEN-12 04,2023-123A,2026-06-11T22:22:27.693408,14.80218815,.00017998,97.9125,81.0254,85.3925,274.7493,0,U,57654,999,15185,.12040668E-3,.864E-5,0
PARS 1,2024-039Q,2026-06-11T22:35:18.944736,15.45617018,.00111664,97.4814,143.6957,127.3107,232.9161,0,U,59065,999,12783,.21801694E-3,.10428E-3,0
RESURS-P 4,2024-061A,2026-06-11T21:46:58.532160,15.32101616,.00017668,97.2747,110.8983,131.2898,228.8496,0,U,59371,999,12295,.95786021E-4,.2892E-4,0
LEGION 1,2024-081A,2026-06-11T21:11:22.379424,15.16630288,.00100242,97.5019,240.7964,35.3017,324.8878,0,U,59625,999,11673,.17988754E-3,.3453E-4,0
LEGION 2,2024-081B,2026-06-11T21:54:26.379648,15.16608953,.00112822,97.5020,240.9235,2.6840,357.4451,0,U,59626,999,11674,.1654432E-3,.317E-4,0
ALOS-4 (DAICHI-4),2024-123A,2026-06-11T21:11:43.886976,14.79476910,.00016336,97.9243,260.1312,96.6818,263.4580,0,U,60182,999,10509,.17705469E-3,.1271E-4,0
LEGION 3,2024-146A,2026-06-11T22:12:30.730752,15.16000484,.00071188,45.0022,58.7738,138.1359,222.0065,0,U,60452,999,10122,.19591096E-3,.3565E-4,0
LEGION 4,2024-146B,2026-06-11T22:16:54.160032,15.15992711,.00141042,45.0001,150.6684,280.9748,78.9543,0,U,60453,999,10007,.15207276E-3,.271E-4,0
SENTINEL-2C,2024-157A,2026-06-11T18:54:36.967968,14.30816341,.00011091,98.5691,237.6461,80.0974,280.0334,0,U,60989,999,9221,.43428139E-4,.7E-6,0
IONOSFERA-M 1,2024-199A,2026-06-11T22:03:51.451200,14.22753301,.0001802,98.7180,36.1470,117.2986,242.8376,0,U,61735,999,12695,.38364984E-4,.42E-6,0
