GAOFEN-11 01            
1 43585U 18063A   26162.96162372  .00009854  00000+0  14770-3 0  9993
2 43585  97.1301 229.8551 0003734  17.3278 342.8104 15.55131164439533
ICESAT-2                
1 43613U 18070A   26162.91661942  .00005202  00000+0  18933-3 0  9993
2 43613  92.0065 289.5560 0005762 115.2806 244.9041 15.28187960431659
HYSIS                   
1 43719U 18096A   26162.93326251  .00000612  00000+0  90531-4 0  9996
2 43719  97.9843 229.7223 0001793 111.0098 249.1305 14.78683592406640
KAZSTSAT                
1 43783U 18099AB  26162.62688653  .00001236  00000+0  10421-3 0  9995
2 43783  97.4264 194.8082 0008154  84.2213 275.9941 14.99850159410473
SAUDISAT 5A             
1 43831U 18102A   26162.92591620  .00005097  00000+0  18904-3 0  9997
2 43831  97.3076 224.6081 0010670 145.3106 214.8832 15.27992836414874
SAUDISAT 5B             
1 43833U 18102C   26162.94564869  .00004683  00000+0  17254-3 0  9993
2 43833  97.3183 227.6876 0011317 147.6965 212.4970 15.28252682414996
GAOFEN-10R              
1 44622U 19066A   26162.95865503  .00000956  00000+0  12417-3 0  9995
2 44622  98.0496 116.4998 0006328 141.8066 218.3597 14.83049314361607
CARTOSAT-3              
1 44804U 19081A   26162.95412171  .00002940  00000+0  14249-3 0  9993
2 44804  97.4313 224.9048 0012710 165.3730 194.7875 15.19243487362673
GAOFEN-12 01            
1 44819U 19082A   26162.94302950  .00000329  00000+0  49615-4 0  9997
2 44819  97.8106 169.4609 0002406  76.2704 283.8776 14.80454189353312
CSG-1                   
1 44873U 19092A   26162.44795788  .00000333  00000+0  48405-4 0  9999
2 44873  97.8887 346.1336 0001445  90.9927 269.1452 14.82160067350621
NEMO-HD                 
1 46277U 20061F   26162.94684174  .00009483  00000+0  20649-3 0  9992
2 46277  97.1929 224.9525 0002462  86.9614 273.1917 15.44488438321175
SENTINEL-6A             
1 46984U 20086A   26162.30786473 -.00000031  00000+0  12839-3 0  9992
2 46984  66.0388 147.2637 0007940 270.2561  89.7545 12.80929900259573
CAS500-1                
1 47932U 21022A   26162.92874161  .00006173  00000+0  28845-3 0  9993
2 47932  97.3913  58.2886 0004184 326.9355  33.1618 15.20146843289966
GAOFEN-12 02            
1 48079U 21026A   26162.95352698  .00000310  00000+0  47656-4 0  9998
2 48079  97.9920 161.1555 0003408 244.7463 115.3396 14.80292137280987
PLEIADES NEO 3          
1 48268U 21034A   26162.98561617  .00001182  00000+0  15678-3 0  9999
2 48268  97.8932 237.8271 0001422  88.6785 271.4591 14.81677185276887
PLEIADES NEO 4          
1 49070U 21073E   26162.95185654  .00000528  00000+0  73688-4 0  9993
2 49070  97.8934 237.7892 0001363  85.2363 274.9005 14.81676678260593
LANDSAT 9               
1 49260U 21088A   26162.77157042  .00000254  00000+0  66368-4 0  9993
2 49260  98.2279 233.0143 0001444  87.7777 272.3587 14.57106894250211
CSG-2                   
1 51444U 22008A   26162.95428289  .00000964  00000+0  12765-3 0  9996
2 51444  97.8890 346.6284 0001477  85.8122 274.3260 14.82155485235815
GAOFEN-12 03            
1 52912U 22069A   26162.91489096  .00001045  00000+0  14483-3 0  9993
2 52912  97.8291  50.9179 0001861 108.3827 251.7588 14.80026690213832
SWOT                    
1 54754U 22173A   26162.91499855  .00000111  00000+0  76665-4 0  9993
2 54754  77.6110  42.4275 0000248  98.3299 261.7881 14.00168939178412
GAOFEN-12 04            
1 57654U 23123A   26162.93226497  .00000864  00000+0  12041-3 0  9995
2 57654  97.9125  81.0254 0001799  85.3925 274.7493 14.80218815151854
PARS 1                  
1 59065U 24039Q   26162.94119149  .00010428  00000+0  21802-3 0  9998
2 59065  97.4814 143.6957 0011166 127.3107 232.9161 15.45617018127834
RESURS-P 4              
1 59371U 24061A   26162.90762190  .00002892  00000+0  95786-4 0  9998
2 59371  97.2747 110.8983 0001766 131.2898 228.8496 15.32101616122959
LEGION 1                
1 59625U 24081A   26162.88289791  .00003453  00000+0  17989-3 0  9992
2 59625  97.5019 240.7964 0010024  35.3017 324.8878 15.16630288116736
LEGION 2                
1 59626U 24081B   26162.91280532  .00003170  00000+0  16544-3 0  9993
2 59626  97.5020 240.9235 0011282   2.6840 357.4451 15.16608953116744
ALOS-4 (DAICHI-4)       
1 60182U 24123A   26162.88314684  .00001271  00000+0  17705-3 0  9991
2 60182  97.9243 260.1312 0001633  96.6818 263.4580 14.79476910105090
LEGION 3                
1 60452U 24146A   26162.92535568  .00003565  00000+0  19591-3 0  9990
2 60452  45.0022  58.7738 0007118 138.1359 222.0065 15.16000484101229
LEGION 4                
1 60453U 24146B   26162.92840463  .00002710  00000+0  15207-3 0  9995
2 60453  45.0001 150.6684 0014104 280.9748  78.9543 15.15992711100073
SENTINEL-2C             
1 60989U 24157A   26162.78792787  .00000070  00000+0  43428-4 0  9994
2 60989  98.5691 237.6461 0001109  80.0974 280.0334 14.30816341 92215
IONOSFERA-M 1           
1 61735U 24199A   26162.91934550  .00000042  00000+0  38365-4 0  9994
2 61735  98.7180  36.1470 0001802 117.2986 242.8376 14.22753301126956
